start=new Date('2022-10-21T00:00:00.000Z').valueOf();
sats=[{"LAUNCH_DATE":"2022-04-29","TIME_SYSTEM":"UTC","DECAY_DATE":null,"OBJECT_NAME":"STARLINK-3889","PERIOD":"95.437","MEAN_ELEMENT_THEORY":"SGP4","EPHEMERIS_TYPE":"0","BSTAR":"0.00015256000000","COUNTRY_CODE":"US","RA_OF_ASC_NODE":"356.9216","CLASSIFICATION_TYPE":"U","RCS_SIZE":"LARGE","REF_FRAME":"TEME","EPOCH":"2022-10-20T20:56:44.782656","ARG_OF_PERICENTER":"30.3142","SEMIMAJOR_AXIS":"6917.860","REV_AT_EPOCH":"2907","ECCENTRICITY":"0.00021770","OBJECT_ID":"2022-045A","MEAN_ANOMALY":"329.7976","NORAD_CAT_ID":"52331","TLE_LINE2":"2 52331  53.2176 356.9216 0002177  30.3142 329.7976 15.08846754 29071","PERIAPSIS":"538.219","APOAPSIS":"541.231","OBJECT_TYPE":"PAYLOAD","TLE_LINE1":"1 52331U 22045A   22293.87274054  .00002141  00000-0  15256-3 0  9992","SITE":"AFETR","FILE":"3626396","CENTER_NAME":"EARTH","GP_ID":"215727217","MEAN_MOTION_DDOT":"0.0000000000000","INCLINATION":"53.2176","MEAN_MOTION_DOT":"0.00002141","ELEMENT_SET_NO":"999","MEAN_MOTION":"15.08846754"},{"COUNTRY_CODE":"US","TIME_SYSTEM":"UTC","LAUNCH_DATE":"2022-04-29","BSTAR":"0.00000070300000","EPHEMERIS_TYPE":"0","PERIOD":"95.438","MEAN_ELEMENT_THEORY":"SGP4","DECAY_DATE":null,"OBJECT_NAME":"STARLINK-3831","OBJECT_ID":"2022-045B","ECCENTRICITY":"0.00025180","REV_AT_EPOCH":"2902","NORAD_CAT_ID":"52332","TLE_LINE2":"2 52332  53.2183 358.3493 0002518  23.7433 336.3675 15.08839068 29026","MEAN_ANOMALY":"336.3675","REF_FRAME":"TEME","RCS_SIZE":"LARGE","CLASSIFICATION_TYPE":"U","RA_OF_ASC_NODE":"358.3493","SEMIMAJOR_AXIS":"6917.883","ARG_OF_PERICENTER":"23.7433","EPOCH":"2022-10-20T13:15:42.603552","FILE":"3626396","SITE":"AFETR","TLE_LINE1":"1 52332U 22045B   22293.55257643 -.00000277  00000-0  70300-6 0  9996","OBJECT_TYPE":"PAYLOAD","CENTER_NAME":"EARTH","GP_ID":"215726951","APOAPSIS":"541.490","PERIAPSIS":"538.006","ELEMENT_SET_NO":"999","MEAN_MOTION":"15.08839068","INCLINATION":"53.2183","MEAN_MOTION_DDOT":"0.0000000000000","MEAN_MOTION_DOT":"-0.00000277"},{"MEAN_MOTION_DOT":"0.00001812","INCLINATION":"53.2180","MEAN_MOTION_DDOT":"0.0000000000000","MEAN_MOTION":"15.08840624","ELEMENT_SET_NO":"999","PERIAPSIS":"537.999","APOAPSIS":"541.488","GP_ID":"215691989","CENTER_NAME":"EARTH","OBJECT_TYPE":"PAYLOAD","TLE_LINE1":"1 52333U 22045C   22293.48266651  .00001812  00000-0  13193-3 0  9997","SITE":"AFETR","FILE":"3625892","ARG_OF_PERICENTER":"27.9890","EPOCH":"2022-10-20T11:35:02.386464","SEMIMAJOR_AXIS":"6917.878","CLASSIFICATION_TYPE":"U","RA_OF_ASC_NODE":"358.6633","REF_FRAME":"TEME","RCS_SIZE":"LARGE","MEAN_ANOMALY":"332.1237","NORAD_CAT_ID":"52333","TLE_LINE2":"2 52333  53.2180 358.6633 0002522  27.9890 332.1237 15.08840624 29007","REV_AT_EPOCH":"2900","ECCENTRICITY":"0.00025220","OBJECT_ID":"2022-045C","OBJECT_NAME":"STARLINK-3847","DECAY_DATE":null,"PERIOD":"95.438","MEAN_ELEMENT_THEORY":"SGP4","EPHEMERIS_TYPE":"0","BSTAR":"0.00013193000000","LAUNCH_DATE":"2022-04-29","TIME_SYSTEM":"UTC","COUNTRY_CODE":"US"},{"TLE_LINE1":"1 52334U 22045D   22293.86906493  .00000229  00000-0  32490-4 0  9998","OBJECT_TYPE":"PAYLOAD","FILE":"3626396","SITE":"AFETR","CENTER_NAME":"EARTH","GP_ID":"215726467","APOAPSIS":"541.735","PERIAPSIS":"537.773","ELEMENT_SET_NO":"999","MEAN_MOTION":"15.08837204","MEAN_MOTION_DDOT":"0.0000000000000","INCLINATION":"53.2184","MEAN_MOTION_DOT":"0.00000229","COUNTRY_CODE":"US","TIME_SYSTEM":"UTC","LAUNCH_DATE":"2022-04-29","MEAN_ELEMENT_THEORY":"SGP4","PERIOD":"95.438","OBJECT_NAME":"STARLINK-3880","DECAY_DATE":null,"BSTAR":"0.00003249000000","EPHEMERIS_TYPE":"0","ECCENTRICITY":"0.00028640","REV_AT_EPOCH":"2906","OBJECT_ID":"2022-045D","NORAD_CAT_ID":"52334","TLE_LINE2":"2 52334  53.2184 356.9436 0002864  25.1507 334.9624 15.08837204 29064","MEAN_ANOMALY":"334.9624","CLASSIFICATION_TYPE":"U","RA_OF_ASC_NODE":"356.9436","RCS_SIZE":"LARGE","REF_FRAME":"TEME","EPOCH":"2022-10-20T20:51:27.209952","ARG_OF_PERICENTER":"25.1507","SEMIMAJOR_AXIS":"6917.889"},{"COUNTRY_CODE":"US","LAUNCH_DATE":"2022-04-29","TIME_SYSTEM":"UTC","EPHEMERIS_TYPE":"0","BSTAR":"0.00002080200000","DECAY_DATE":null,"OBJECT_NAME":"STARLINK-3814","MEAN_ELEMENT_THEORY":"SGP4","PERIOD":"95.438","OBJECT_ID":"2022-045E","REV_AT_EPOCH":"2903","ECCENTRICITY":"0.00028860","MEAN_ANOMALY":"332.3058","TLE_LINE2":"2 52335  53.2177 358.1560 0002886  27.8088 332.3058 15.08838986 29034","NORAD_CAT_ID":"52335","RCS_SIZE":"LARGE","REF_FRAME":"TEME","RA_OF_ASC_NODE":"358.1560","CLASSIFICATION_TYPE":"U","SEMIMAJOR_AXIS":"6917.883","ARG_OF_PERICENTER":"27.8088","EPOCH":"2022-10-20T14:24:37.110528","SITE":"AFETR","FILE":"3626396","TLE_LINE1":"1 52335U 22045E   22293.60042952  .00000042  00000-0  20802-4 0  9999","OBJECT_TYPE":"PAYLOAD","CENTER_NAME":"EARTH","GP_ID":"215726718","PERIAPSIS":"537.752","APOAPSIS":"541.745","ELEMENT_SET_NO":"999","MEAN_MOTION":"15.08838986","INCLINATION":"53.2177","MEAN_MOTION_DDOT":"0.0000000000000","MEAN_MOTION_DOT":"0.00000042"},{"PERIAPSIS":"538.018","APOAPSIS":"541.455","CENTER_NAME":"EARTH","GP_ID":"215727451","OBJECT_TYPE":"PAYLOAD","TLE_LINE1":"1 52336U 22045F   22293.52777554  .00003984  00000-0  26823-3 0  9990","FILE":"3626396","SITE":"AFETR","MEAN_MOTION_DOT":"0.00003984","MEAN_MOTION_DDOT":"0.0000000000000","INCLINATION":"53.2179","MEAN_MOTION":"15.08843027","ELEMENT_SET_NO":"999","MEAN_ELEMENT_THEORY":"SGP4","PERIOD":"95.437","DECAY_DATE":null,"OBJECT_NAME":"STARLINK-3823","EPHEMERIS_TYPE":"0","BSTAR":"0.00026823000000","TIME_SYSTEM":"UTC","LAUNCH_DATE":"2022-04-29","COUNTRY_CODE":"US","EPOCH":"2022-10-20T12:39:59.806656","ARG_OF_PERICENTER":"36.2771","SEMIMAJOR_AXIS":"6917.871","CLASSIFICATION_TYPE":"U","RA_OF_ASC_NODE":"358.4820","REF_FRAME":"TEME","RCS_SIZE":"LARGE","TLE_LINE2":"2 52336  53.2179 358.4820 0002484  36.2771 323.8390 15.08843027 29021","NORAD_CAT_ID":"52336","MEAN_ANOMALY":"323.8390","ECCENTRICITY":"0.00024840","REV_AT_EPOCH":"2902","OBJECT_ID":"2022-045F"},{"CENTER_NAME":"EARTH","GP_ID":"215726217","OBJECT_TYPE":"PAYLOAD","TLE_LINE1":"1 52337U 22045G   22293.87642435  .00000480  00000-0  48278-4 0  9995","SITE":"AFETR","FILE":"3626396","APOAPSIS":"541.800","PERIAPSIS":"537.688","MEAN_MOTION":"15.08840516","ELEMENT_SET_NO":"999","MEAN_MOTION_DOT":"0.00000480","INCLINATION":"53.2176","MEAN_MOTION_DDOT":"0.0000000000000","COUNTRY_CODE":"US","DECAY_DATE":null,"OBJECT_NAME":"STARLINK-3797","MEAN_ELEMENT_THEORY":"SGP4","PERIOD":"95.438","EPHEMERIS_TYPE":"0","BSTAR":"0.00004827800000","LAUNCH_DATE":"2022-04-29","TIME_SYSTEM":"UTC","MEAN_ANOMALY":"334.0502","TLE_LINE2":"2 52337  53.2176 356.8964 0002972  26.0639 334.0502 15.08840516 29076","NORAD_CAT_ID":"52337","REV_AT_EPOCH":"2907","ECCENTRICITY":"0.00029720","OBJECT_ID":"2022-045G","EPOCH":"2022-10-20T21:02:03.063840","ARG_OF_PERICENTER":"26.0639","SEMIMAJOR_AXIS":"6917.879","RA_OF_ASC_NODE":"356.8964","CLASSIFICATION_TYPE":"U","REF_FRAME":"TEME","RCS_SIZE":"LARGE"},{"COUNTRY_CODE":"US","TIME_SYSTEM":"UTC","LAUNCH_DATE":"2022-04-29","MEAN_ELEMENT_THEORY":"SGP4","PERIOD":"95.438","DECAY_DATE":null,"OBJECT_NAME":"STARLINK-3815","EPHEMERIS_TYPE":"0","BSTAR":"0.00016206000000","ECCENTRICITY":"0.00026570","REV_AT_EPOCH":"2901","OBJECT_ID":"2022-045H","NORAD_CAT_ID":"52338","TLE_LINE2":"2 52338  53.2188 358.8272 0002657  29.4587 330.6554 15.08829495 29019","MEAN_ANOMALY":"330.6554","RA_OF_ASC_NODE":"358.8272","CLASSIFICATION_TYPE":"U","REF_FRAME":"TEME","RCS_SIZE":"LARGE","EPOCH":"2022-10-20T10:48:43.632864","ARG_OF_PERICENTER":"29.4587","SEMIMAJOR_AXIS":"6917.912","OBJECT_TYPE":"PAYLOAD","TLE_LINE1":"1 52338U 22045H   22293.45050501  .00002291  00000-0  16206-3 0  9994","FILE":"3625892","SITE":"AFETR","CENTER_NAME":"EARTH","GP_ID":"215691727","APOAPSIS":"541.616","PERIAPSIS":"537.939","ELEMENT_SET_NO":"999","MEAN_MOTION":"15.08829495","MEAN_MOTION_DDOT":"0.0000000000000","INCLINATION":"53.2188","MEAN_MOTION_DOT":"0.00002291"},{"PERIAPSIS":"537.952","APOAPSIS":"541.555","CENTER_NAME":"EARTH","GP_ID":"215690489","SITE":"AFETR","FILE":"3625892","TLE_LINE1":"1 52339U 22045J   22293.45417566  .00000889  00000-0  73987-4 0  9994","OBJECT_TYPE":"PAYLOAD","MEAN_MOTION_DOT":"0.00000889","INCLINATION":"53.2179","MEAN_MOTION_DDOT":"0.0000000000000","MEAN_MOTION":"15.08837390","ELEMENT_SET_NO":"999","EPHEMERIS_TYPE":"0","BSTAR":"0.00007398700000","OBJECT_NAME":"STARLINK-3792","DECAY_DATE":null,"PERIOD":"95.438","MEAN_ELEMENT_THEORY":"SGP4","LAUNCH_DATE":"2022-04-29","TIME_SYSTEM":"UTC","COUNTRY_CODE":"US","SEMIMAJOR_AXIS":"6917.888","EPOCH":"2022-10-20T10:54:00.777024","ARG_OF_PERICENTER":"26.8612","REF_FRAME":"TEME","RCS_SIZE":"LARGE","RA_OF_ASC_NODE":"358.8121","CLASSIFICATION_TYPE":"U","MEAN_ANOMALY":"333.2514","NORAD_CAT_ID":"52339","TLE_LINE2":"2 52339  53.2179 358.8121 0002604  26.8612 333.2514 15.08837390 29013","OBJECT_ID":"2022-045J","REV_AT_EPOCH":"2901","ECCENTRICITY":"0.00026040"},{"ARG_OF_PERICENTER":"26.5707","EPOCH":"2022-10-20T11:36:21.507264","SEMIMAJOR_AXIS":"6917.892","RA_OF_ASC_NODE":"348.6588","CLASSIFICATION_TYPE":"U","RCS_SIZE":"LARGE","REF_FRAME":"TEME","NORAD_CAT_ID":"52340","TLE_LINE2":"2 52340  53.2180 348.6588 0002540  26.5707 333.5415 15.08836087 29141","MEAN_ANOMALY":"333.5415","ECCENTRICITY":"0.00025400","REV_AT_EPOCH":"2914","OBJECT_ID":"2022-045K","MEAN_ELEMENT_THEORY":"SGP4","PERIOD":"95.438","DECAY_DATE":null,"OBJECT_NAME":"STARLINK-3818","BSTAR":"0.00007231900000","EPHEMERIS_TYPE":"0","TIME_SYSTEM":"UTC","LAUNCH_DATE":"2022-04-29","COUNTRY_CODE":"US","MEAN_MOTION_DOT":"0.00000863","INCLINATION":"53.2180","MEAN_MOTION_DDOT":"0.0000000000000","MEAN_MOTION":"15.08836087","ELEMENT_SET_NO":"999","PERIAPSIS":"538.000","APOAPSIS":"541.514","GP_ID":"215690739","CENTER_NAME":"EARTH","OBJECT_TYPE":"PAYLOAD","TLE_LINE1":"1 52340U 22045K   22293.48358226  .00000863  00000-0  72319-4 0  9996","FILE":"3625892","SITE":"AFETR"}];
